{
  "type": "FeatureCollection",
  "features": [
    {
      "type": "Feature",
      "properties": {
        "norad_id": 40115,
        "name": "WORLDVIEW-3 (WV-3)",
        "group": "resource",
        "lat": 42.734847865852124,
        "lon": -116.11349952734365,
        "alt_km": 606.7702402230434,
        "timestamp": "2025-12-10T05:46:13.454401+00:00",
        "meta_object_name": "WORLDVIEW-3 (WV-3)",
        "meta_object_id": "2014-048A",
        "meta_epoch": "2025-12-09T19:27:26.278848",
        "meta_mean_motion": 14.85501134,
        "meta_eccentricity": 0.0004525,
        "meta_inclination": 97.8618,
        "meta_ra_of_asc_node": 56.1278,
        "meta_arg_of_pericenter": 194.6842,
        "meta_mean_anomaly": 165.4242,
        "meta_ephemeris_type": 0,
        "meta_classification_type": "U",
        "meta_norad_cat_id": 40115,
        "meta_element_set_no": 999,
        "meta_rev_at_epoch": 61380,
        "meta_bstar": 0.00024484,
        "meta_mean_motion_dot": 2.06e-05,
        "meta_mean_motion_ddot": 0,
        "tle_line1": "1 40115U 14048A   25343.81072082  .00002060  00000+0  24484-3 0  9995",
        "tle_line2": "2 40115  97.8618  56.1278 0004525 194.6842 165.4242 14.85501134613805"
      },
      "geometry": {
        "type": "Point",
        "coordinates": [
          -116.11349952734365,
          42.734847865852124
        ]
      }
    },
    {
      "type": "Feature",
      "properties": {
        "norad_id": 40118,
        "name": "GAOFEN-2",
        "group": "resource",
        "lat": -2.06902941250845,
        "lon": 43.69668817294848,
        "alt_km": 633.7961956176241,
        "timestamp": "2025-12-10T05:46:13.454411+00:00",
        "meta_object_name": "GAOFEN-2",
        "meta_object_id": "2014-049A",
        "meta_epoch": "2025-12-09T20:02:53.223072",
        "meta_mean_motion": 14.80598561,
        "meta_eccentricity": 0.0008432,
        "meta_inclination": 98.0383,
        "meta_ra_of_asc_node": 42.9984,
        "meta_arg_of_pericenter": 120.783,
        "meta_mean_anomaly": 239.4213,
        "meta_ephemeris_type": 0,
        "meta_classification_type": "U",
        "meta_norad_cat_id": 40118,
        "meta_element_set_no": 999,
        "meta_rev_at_epoch": 61121,
        "meta_bstar": 8.7001e-05,
        "meta_mean_motion_dot": 6.14e-06,
        "meta_mean_motion_ddot": 0,
        "tle_line1": "1 40118U 14049A   25343.83533823  .00000614  00000+0  87001-4 0  9994",
        "tle_line2": "2 40118  98.0383  42.9984 0008432 120.7830 239.4213 14.80598561611213"
      },
      "geometry": {
        "type": "Point",
        "coordinates": [
          43.69668817294848,
          -2.06902941250845
        ]
      }
    },
    {
      "type": "Feature",
      "properties": {
        "norad_id": 40143,
        "name": "YAOGAN-21",
        "group": "resource",
        "lat": -64.22893099640297,
        "lon": 42.787502952671815,
        "alt_km": 504.93433419697794,
        "timestamp": "2025-12-10T05:46:13.454421+00:00",
        "meta_object_name": "YAOGAN-21",
        "meta_object_id": "2014-053A",
        "meta_epoch": "2025-12-09T20:35:55.597632",
        "meta_mean_motion": 15.2362145,
        "meta_eccentricity": 0.0009912,
        "meta_inclination": 97.1757,
        "meta_ra_of_asc_node": 27.2954,
        "meta_arg_of_pericenter": 50.3148,
        "meta_mean_anomaly": 309.8962,
        "meta_ephemeris_type": 0,
        "meta_classification_type": "U",
        "meta_norad_cat_id": 40143,
        "meta_element_set_no": 999,
        "meta_rev_at_epoch": 62610,
        "meta_bstar": 0.00030959,
        "meta_mean_motion_dot": 7.358e-05,
        "meta_mean_motion_ddot": 0,
        "tle_line1": "1 40143U 14053A   25343.85828238  .00007358  00000+0  30959-3 0  9997",
        "tle_line2": "2 40143  97.1757  27.2954 0009912  50.3148 309.8962 15.23621450626102"
      },
      "geometry": {
        "type": "Point",
        "coordinates": [
          42.787502952671815,
          -64.22893099640297
        ]
      }
    },
    {
      "type": "Feature",
      "properties": {
        "norad_id": 40275,
        "name": "YAOGAN-22",
        "group": "resource",
        "lat": -19.14434434053668,
        "lon": -56.153833909137894,
        "alt_km": 1204.1331283141517,
        "timestamp": "2025-12-10T05:46:13.454432+00:00",
        "meta_object_name": "YAOGAN-22",
        "meta_object_id": "2014-063A",
        "meta_epoch": "2025-12-09T19:37:59.621952",
        "meta_mean_motion": 13.15522522,
        "meta_eccentricity": 0.0005937,
        "meta_inclination": 100.7419,
        "meta_ra_of_asc_node": 127.1963,
        "meta_arg_of_pericenter": 255.3924,
        "meta_mean_anomaly": 104.6529,
        "meta_ephemeris_type": 0,
        "meta_classification_type": "U",
        "meta_norad_cat_id": 40275,
        "meta_element_set_no": 999,
        "meta_rev_at_epoch": 53491,
        "meta_bstar": 0.00011798,
        "meta_mean_motion_dot": -2e-08,
        "meta_mean_motion_ddot": 0,
        "tle_line1": "1 40275U 14063A   25343.81805118 -.00000002  00000+0  11798-3 0  9992",
        "tle_line2": "2 40275 100.7419 127.1963 0005937 255.3924 104.6529 13.15522522534912"
      },
      "geometry": {
        "type": "Point",
        "coordinates": [
          -56.153833909137894,
          -19.14434434053668
        ]
      }
    },
    {
      "type": "Feature",
      "properties": {
        "norad_id": 40298,
        "name": "ASNARO",
        "group": "resource",
        "lat": 20.167489018722726,
        "lon": 57.52494559385818,
        "alt_km": 508.93002660276943,
        "timestamp": "2025-12-10T05:46:13.454442+00:00",
        "meta_object_name": "ASNARO",
        "meta_object_id": "2014-070A",
        "meta_epoch": "2025-12-09T20:11:51.298080",
        "meta_mean_motion": 15.19391601,
        "meta_eccentricity": 0.0005402,
        "meta_inclination": 97.3647,
        "meta_ra_of_asc_node": 59.8588,
        "meta_arg_of_pericenter": 129.8589,
        "meta_mean_anomaly": 230.3122,
        "meta_ephemeris_type": 0,
        "meta_classification_type": "U",
        "meta_norad_cat_id": 40298,
        "meta_element_set_no": 999,
        "meta_rev_at_epoch": 61525,
        "meta_bstar": 0.00058491,
        "meta_mean_motion_dot": 0.00012327,
        "meta_mean_motion_ddot": 0,
        "tle_line1": "1 40298U 14070A   25343.84156595  .00012327  00000+0  58491-3 0  9999",
        "tle_line2": "2 40298  97.3647  59.8588 0005402 129.8589 230.3122 15.19391601615255"
      },
      "geometry": {
        "type": "Point",
        "coordinates": [
          57.52494559385818,
          20.167489018722726
        ]
      }
    },
    {
      "type": "Feature",
      "properties": {
        "norad_id": 40310,
        "name": "YAOGAN-24",
        "group": "resource",
        "lat": 21.17064480133111,
        "lon": 112.14950066142723,
        "alt_km": 647.049131319076,
        "timestamp": "2025-12-10T05:46:13.454451+00:00",
        "meta_object_name": "YAOGAN-24",
        "meta_object_id": "2014-072A",
        "meta_epoch": "2025-12-09T19:54:45.684288",
        "meta_mean_motion": 14.76167782,
        "meta_eccentricity": 0.0014601,
        "meta_inclination": 98.1225,
        "meta_ra_of_asc_node": 114.9074,
        "meta_arg_of_pericenter": 146.7174,
        "meta_mean_anomaly": 213.4957,
        "meta_ephemeris_type": 0,
        "meta_classification_type": "U",
        "meta_norad_cat_id": 40310,
        "meta_element_set_no": 999,
        "meta_rev_at_epoch": 59578,
        "meta_bstar": 0.00022128,
        "meta_mean_motion_dot": 1.479e-05,
        "meta_mean_motion_ddot": 0,
        "tle_line1": "1 40310U 14072A   25343.82969542  .00001479  00000+0  22128-3 0  9992",
        "tle_line2": "2 40310  98.1225 114.9074 0014601 146.7174 213.4957 14.76167782595789"
      },
      "geometry": {
        "type": "Point",
        "coordinates": [
          112.14950066142723,
          21.17064480133111
        ]
      }
    },
    {
      "type": "Feature",
      "properties": {
        "norad_id": 40336,
        "name": "CBERS 4",
        "group": "resource",
        "lat": 51.73718735813295,
        "lon": -126.95082942250905,
        "alt_km": 767.4407356096817,
        "timestamp": "2025-12-10T05:46:13.454461+00:00",
        "meta_object_name": "CBERS 4",
        "meta_object_id": "2014-079A",
        "meta_epoch": "2025-12-09T20:48:53.222688",
        "meta_mean_motion": 14.35515101,
        "meta_eccentricity": 0.0001573,
        "meta_inclination": 98.3307,
        "meta_ra_of_asc_node": 41.9821,
        "meta_arg_of_pericenter": 114.7291,
        "meta_mean_anomaly": 245.4059,
        "meta_ephemeris_type": 0,
        "meta_classification_type": "U",
        "meta_norad_cat_id": 40336,
        "meta_element_set_no": 999,
        "meta_rev_at_epoch": 57679,
        "meta_bstar": 1.0895e-05,
        "meta_mean_motion_dot": -1.1e-07,
        "meta_mean_motion_ddot": 0,
        "tle_line1": "1 40336U 14079A   25343.86728267 -.00000011  00000+0  10895-4 0  9999",
        "tle_line2": "2 40336  98.3307  41.9821 0001573 114.7291 245.4059 14.35515101576793"
      },
      "geometry": {
        "type": "Point",
        "coordinates": [
          -126.95082942250905,
          51.73718735813295
        ]
      }
    }
  ]
}